NORAD_CAT_ID,OBJECT_NAME,OBJECT_TYPE,EPOCH,MEAN_MOTION,ECCENTRICITY,INCLINATION,RA_OF_ASC_NODE,ARG_OF_PERICENTER,MEAN_ANOMALY,BSTAR,MEAN_MOTION_DOT,MEAN_MOTION_DDOT,TLE_LINE0,TLE_LINE1,TLE_LINE2,SEMIMAJOR_AXIS,PERIOD,APOGEE,PERIGEE,DECAYED
52465.0,STARLINK-3863,PAYLOAD,2024-02-20 11:37:25,15.08836453,0.0001386,53.2154,167.9491,94.9654,265.1496,2.5587e-05,1.19e-06,0.0,0 STARLINK-3863,1 52465U 22049Q   24051.48432196  .00000119  00000-0  25587-4 0  9990,2 52465  53.2154 167.9491 0001386  94.9654 265.1496 15.08836453 99594,6917.891,95.438,540.715,538.797,0.0
52465.0,STARLINK-3863,PAYLOAD,2024-02-20 14:48:11,15.08840137,0.0001401,53.2155,167.3542,97.1302,262.9849,-1.6726e-05,-5.54e-06,0.0,0 STARLINK-3863,1 52465U 22049Q   24051.61680041 -.00000554  00000-0 -16726-4 0  9999,2 52465  53.2155 167.3542 0001401  97.1302 262.9849 15.08840137 99455,6917.88,95.438,540.714,538.776,0.0
52465.0,STARLINK-3863,PAYLOAD,2024-02-21 14:38:58,15.08849306,0.0001426,53.2158,162.8945,98.0466,262.0688,0.000271,4.029e-05,0.0,0 STARLINK-3863,1 52465U 22049Q   24052.61039803  .00004029  00000-0  27100-3 0  9990,2 52465  53.2158 162.8945 0001426  98.0466 262.0688 15.08849306 99609,6917.852,95.437,540.703,538.73,0.0
52465.0,STARLINK-3863,PAYLOAD,2024-02-22 11:18:59,15.08840293,0.0001456,53.2163,159.0269,73.8284,286.2868,6.5711e-05,7.58e-06,0.0,0 STARLINK-3863,1 52465U 22049Q   24053.47152265  .00000758  00000-0  65711-4 0  9999,2 52465  53.2163 159.0269 0001456  73.8284 286.2868 15.08840293 99899,6917.879,95.438,540.752,538.737,0.0
52465.0,STARLINK-3863,PAYLOAD,2024-02-22 14:29:45,15.08842509,0.0001612,53.2168,158.4326,69.2974,290.8191,0.00011213,1.497e-05,0.0,0 STARLINK-3863,1 52465U 22049Q   24053.60400241  .00001497  00000-0  11213-3 0  9992,2 52465  53.2168 158.4326 0001612  69.2974 290.8191 15.08842509 99757,6917.873,95.437,540.853,538.623,0.0
52465.0,STARLINK-3863,PAYLOAD,2024-02-23 11:09:47,15.0882545,0.0001746,53.217,154.5683,71.808,288.3102,0.00016714,2.372e-05,0.0,0 STARLINK-3863,1 52465U 22049Q   24054.46513479  .00002372  00000-0  16714-3 0  9999,2 52465  53.2170 154.5683 0001746  71.8080 288.3102 15.08825450100043,6917.925,95.438,540.998,538.582,0.0
52465.0,STARLINK-3863,PAYLOAD,2024-02-23 14:20:33,15.0883666,0.0001958,53.2171,153.9727,58.8196,301.2988,-6.3957e-06,-3.9e-06,0.0,0 STARLINK-3863,1 52465U 22049Q   24054.59761034 -.00000390  00000-0 -63957-5 0  9998,2 52465  53.2171 153.9727 0001958  58.8196 301.2988 15.08836660 99908,6917.891,95.438,541.11,538.401,0.0
52465.0,STARLINK-3863,PAYLOAD,2024-02-24 12:35:57,15.08834717,0.0001399,53.2157,149.8076,87.9711,272.1441,0.00056614,8.732e-05,0.0,0 STARLINK-3863,1 52465U 22049Q   24055.52497258  .00008732  00000-0  56614-3 0  9992,2 52465  53.2157 149.8076 0001399  87.9711 272.1441 15.08834717100047,6917.897,95.438,540.729,538.794,0.0
52465.0,STARLINK-3863,PAYLOAD,2024-02-25 12:26:43,15.08854049,0.0001493,53.2176,145.3456,96.1863,263.9299,0.00029445,4.403e-05,0.0,0 STARLINK-3863,1 52465U 22049Q   24056.51856114  .00004403  00000-0  29445-3 0  9995,2 52465  53.2176 145.3456 0001493  96.1863 263.9299 15.08854049100359,6917.837,95.437,540.735,538.67,0.0
52465.0,STARLINK-3863,PAYLOAD,2024-02-25 15:37:29,15.08858606,0.0001539,53.2177,144.75,96.1855,263.9313,0.00033141,4.993e-05,0.0,0 STARLINK-3863,1 52465U 22049Q   24056.65103842  .00004993  00000-0  33141-3 0  9995,2 52465  53.2177 144.7500 0001539  96.1855 263.9313 15.08858606100210,6917.824,95.436,540.753,538.624,0.0
52465.0,STARLINK-3863,PAYLOAD,2024-02-26 10:42:08,15.08840945,0.0002059,53.2167,141.1825,111.4834,248.6378,-2.1183e-05,-6.25e-06,0.0,0 STARLINK-3863,1 52465U 22049Q   24057.44592696 -.00000625  00000-0 -21183-4 0  9996,2 52465  53.2167 141.1825 0002059 111.4834 248.6378 15.08840945100494,6917.878,95.437,541.167,538.318,0.0
52465.0,STARLINK-3863,PAYLOAD,2024-02-27 12:08:18,15.08841609,0.0001464,53.2162,136.4246,89.9695,270.1465,2.5692e-05,1.21e-06,0.0,0 STARLINK-3863,1 52465U 22049Q   24058.50576674  .00000121  00000-0  25692-4 0  9990,2 52465  53.2162 136.4246 0001464  89.9695 270.1465 15.08841609100659,6917.875,95.437,540.753,538.728,0.0
52465.0,STARLINK-3863,PAYLOAD,2024-02-27 21:40:37,15.08829047,0.0001398,53.2149,134.6389,85.1762,274.939,-0.00016416,-2.899e-05,0.0,0 STARLINK-3863,1 52465U 22049Q   24058.90320776 -.00002899  00000-0 -16416-3 0  9993,2 52465  53.2149 134.6389 0001398  85.1762 274.9390 15.08829047100551,6917.914,95.438,540.746,538.812,0.0
52465.0,STARLINK-3863,PAYLOAD,2024-02-28 13:34:28,15.0884584,0.0001235,53.2146,131.6674,79.1306,280.9826,0.00031461,4.723e-05,0.0,0 STARLINK-3863,1 52465U 22049Q   24059.56561093  .00004723  00000-0  31461-3 0  9998,2 52465  53.2146 131.6674 0001235  79.1306 280.9826 15.08845840100650,6917.863,95.437,540.582,538.873,0.0
52465.0,STARLINK-3863,PAYLOAD,2024-02-29 11:49:52,15.08855096,0.0001148,53.2139,127.5049,83.1495,276.9628,0.00044849,6.86e-05,0.0,0 STARLINK-3863,1 52465U 22049Q   24060.49296742  .00006860  00000-0  44849-3 0  9996,2 52465  53.2139 127.5049 0001148  83.1495 276.9628 15.08855096100793,6917.834,95.437,540.493,538.905,0.0
52465.0,STARLINK-3863,PAYLOAD,2024-02-29 21:22:11,15.08847207,0.0001407,53.2152,125.7218,87.7689,272.3465,0.00012932,1.771e-05,0.0,0 STARLINK-3863,1 52465U 22049Q   24060.89040706  .00001771  00000-0  12932-3 0  9991,2 52465  53.2152 125.7218 0001407  87.7689 272.3465 15.08847207101019,6917.858,95.437,540.697,538.75,0.0
52465.0,STARLINK-3863,PAYLOAD,2024-03-01 10:05:16,15.08842924,0.0001599,53.2158,123.3417,87.114,273.0035,4.7919e-06,-2.12e-06,0.0,0 STARLINK-3863,1 52465U 22049Q   24061.42032944 -.00000212  00000-0  47919-5 0  9991,2 52465  53.2158 123.3417 0001599  87.1140 273.0035 15.08842924100930,6917.871,95.437,540.843,538.63,0.0
52465.0,STARLINK-3863,PAYLOAD,2024-03-02 09:56:03,15.08850764,0.0001695,53.2164,118.8755,96.4628,263.6557,0.00020923,3.044e-05,0.0,0 STARLINK-3863,1 52465U 22049Q   24062.41392496  .00003044  00000-0  20923-3 0  9991,2 52465  53.2164 118.8755 0001695  96.4628 263.6557 15.08850764101084,6917.847,95.437,540.885,538.54,0.0
52465.0,STARLINK-3863,PAYLOAD,2024-03-03 03:25:18,15.08835531,0.0001737,53.2156,115.6128,88.1671,271.952,4.4794e-05,4.25e-06,0.0,0 STARLINK-3863,1 52465U 22049Q   24063.14257308  .00000425  00000-0  44794-4 0  9997,2 52465  53.2156 115.6128 0001737  88.1671 271.9520 15.08835531101354,6917.894,95.438,540.961,538.557,0.0
52465.0,STARLINK-3863,PAYLOAD,2024-03-03 09:46:50,15.08838138,0.0001687,53.215,114.4202,89.1208,270.9978,0.0001096,1.457e-05,0.0,0 STARLINK-3863,1 52465U 22049Q   24063.40753242  .00001457  00000-0  10960-3 0  9997,2 52465  53.2150 114.4202 0001687  89.1208 270.9978 15.08838138101238,6917.886,95.438,540.918,538.584,0.0
52465.0,STARLINK-3863,PAYLOAD,2024-03-04 03:16:04,15.08859605,0.0001751,53.2154,111.149,83.3799,276.7393,1.5298e-05,-4.5e-07,0.0,0 STARLINK-3863,1 52465U 22049Q   24064.13616331 -.00000045  00000-0  15298-4 0  9998,2 52465  53.2154 111.1490 0001751  83.3799 276.7393 15.08859605101505,6917.82,95.436,540.897,538.474,0.0
52465.0,STARLINK-3863,PAYLOAD,2024-03-04 09:37:37,15.08861068,0.0001729,53.2154,109.9609,84.8608,275.2582,0.0004624,7.083e-05,0.0,0 STARLINK-3863,1 52465U 22049Q   24064.40112330  .00007083  00000-0  46240-3 0  9996,2 52465  53.2154 109.9609 0001729  84.8608 275.2582 15.08861068101388,6917.816,95.436,540.877,538.485,0.0
52465.0,STARLINK-3863,PAYLOAD,2024-03-05 12:39:11,15.08824535,0.000145,53.2155,104.9052,81.7707,278.3449,0.00013079,1.793e-05,0.0,0 STARLINK-3863,1 52465U 22049Q   24065.52721858  .00001793  00000-0  13079-3 0  9997,2 52465  53.2155 104.9052 0001450  81.7707 278.3449 15.08824535101556,6917.928,95.439,540.796,538.79,0.0
52465.0,STARLINK-3863,PAYLOAD,2024-03-05 19:00:44,15.08823894,0.0001616,53.2157,103.7148,96.702,263.4156,0.00061308,9.478e-05,0.0,0 STARLINK-3863,1 52465U 22049Q   24065.79218233  .00009478  00000-0  61308-3 0  9990,2 52465  53.2157 103.7148 0001616  96.7020 263.4156 15.08823894101758,6917.93,95.439,540.913,538.677,0.0
52465.0,STARLINK-3863,PAYLOAD,2024-03-06 09:19:12,15.08843133,0.000161,53.2157,101.0381,97.0378,263.0797,0.0008628,0.00013471,0.0,0 STARLINK-3863,1 52465U 22049Q   24066.38834299  .00013471  00000-0  86280-3 0  9996,2 52465  53.2157 101.0381 0001610  97.0378 263.0797 15.08843133101689,6917.871,95.437,540.85,538.622,0.0
52465.0,STARLINK-3863,PAYLOAD,2024-03-07 10:45:22,15.08846341,0.000168,53.2161,96.2802,97.5269,262.5914,0.00029566,4.421e-05,0.0,0 STARLINK-3863,1 52465U 22049Q   24067.44818193  .00004421  00000-0  29566-3 0  9998,2 52465  53.2161  96.2802 0001680  97.5269 262.5914 15.08846341101845,6917.861,95.437,540.888,538.564,0.0
52465.0,STARLINK-3863,PAYLOAD,2024-03-08 10:36:09,15.0885128,0.0001685,53.216,91.8185,90.9557,269.1628,0.00021791,3.183e-05,0.0,0 STARLINK-3863,1 52465U 22049Q   24068.44177728  .00003183  00000-0  21791-3 0  9997,2 52465  53.2160  91.8185 0001685  90.9557 269.1628 15.08851280101990,6917.846,95.437,540.877,538.545,0.0
52465.0,STARLINK-3863,PAYLOAD,2024-03-08 18:33:05,15.08846103,0.0001791,53.2164,90.3305,82.0489,278.0707,0.00010675,1.412e-05,0.0,0 STARLINK-3863,1 52465U 22049Q   24068.77297872  .00001412  00000-0  10675-3 0  9998,2 52465  53.2164  90.3305 0001791  82.0489 278.0707 15.08846103102206,6917.862,95.437,540.966,538.488,0.0
52465.0,STARLINK-3863,PAYLOAD,2024-03-09 08:51:33,15.08842285,0.0001634,53.2155,87.6576,83.7804,276.3374,8.6307e-05,1.086e-05,0.0,0 STARLINK-3863,1 52465U 22049Q   24069.36914242  .00001086  00000-0  86307-4 0  9994,2 52465  53.2155  87.6576 0001634  83.7804 276.3374 15.08842285102297,6917.873,95.437,540.869,538.608,0.0
52465.0,STARLINK-3863,PAYLOAD,2024-03-09 18:23:52,15.08844414,0.0001613,53.215,85.8729,84.2593,275.8583,0.00014091,1.956e-05,0.0,0 STARLINK-3863,1 52465U 22049Q   24069.76658003  .00001956  00000-0  14091-3 0  9994,2 52465  53.2150  85.8729 0001613  84.2593 275.8583 15.08844414102191,6917.867,95.437,540.848,538.616,0.0
